NUSHSAT1                
1 63211U 25052B   26068.64700493  .00023034  00000+0  74857-3 0  9997
2 63211  97.4095 325.7239 0005501  84.7512 275.4357 15.31903202 54882
STARLINK-35365          
1 66186U 25243K   26068.77135727  .00034418  00000+0  11684-2 0  9995
2 66186  53.1581 245.0632 0001015  72.4283 287.6828 15.30211680 20669
